[{"OBJECT_NAME":"NINGXIA-1 2","OBJECT_ID":"2019-076B","EPOCH":"2026-03-09T23:24:08.353152","MEAN_MOTION":14.02042017,"ECCENTRICITY":0.00068224,"INCLINATION":45.0077,"RA_OF_ASC_NODE":263.5361,"ARG_OF_PERICENTER":35.7549,"MEAN_ANOMALY":324.3741,"EPHEMERIS_TYPE":0,"CLASSIFICATION_TYPE":"U","NORAD_CAT_ID":44780,"ELEMENT_SET_NO":999,"REV_AT_EPOCH":32393,"BSTAR":9.5801931e-5,"MEAN_MOTION_DOT":1.7e-7,"MEAN_MOTION_DDOT":0},{"OBJECT_NAME":"COSMOS 1275 DEB","OBJECT_ID":"1981-053LS","EPOCH":"2026-03-09T05:39:12.797856","MEAN_MOTION":14.00511016,"ECCENTRICITY":0.00704178,"INCLINATION":83.2885,"RA_OF_ASC_NODE":153.6419,"ARG_OF_PERICENTER":248.5738,"MEAN_ANOMALY":110.7912,"EPHEMERIS_TYPE":0,"CLASSIFICATION_TYPE":"U","NORAD_CAT_ID":18505,"ELEMENT_SET_NO":999,"REV_AT_EPOCH":5931,"BSTAR":0.0018803558,"MEAN_MOTION_DOT":2.866e-5,"MEAN_MOTION_DDOT":0}]
